NOAA 15                 
1 25338U 98030A   22298.42276830  .00000126  00000+0  70807-4 0  9990
2 25338  98.6339 326.1989 0009283 279.4886  80.5244 14.26186660271794
NOAA 18                 
1 28654U 05018A   22298.44864802  .00000161  00000+0  11066-3 0  9992
2 28654  98.9374   8.7080 0013579 327.2422  32.7906 14.12795389898424
NOAA 19                 
1 33591U 09005A   22298.39393918  .00000173  00000+0  11835-3 0  9994
2 33591  99.1352 335.1864 0013964 179.3680 180.7511 14.12627156706796
METOP-B                 
1 38771U 12049A   22298.49331233  .00000098  00000+0  64652-4 0  9996
2 38771  98.7144 356.3758 0001332  66.2891 356.2757 14.21485821524203
SARAL                   
1 39086U 13009A   22298.13852190  .00000060  00000+0  38492-4 0  9996
2 39086  98.5478 121.8738 0000332 148.1551 211.9653 14.32039212505040
METOP-C                 
1 43689U 18087A   22298.44729283  .00000092  00000+0  62088-4 0  9994
2 43689  98.7190 356.3475 0003618  38.5574 321.5862 14.21479535205778
ANGELS                  
1 44876U 19092D   22298.30621953  .00002708  00000+0  13409-3 0  9998
2 44876  97.4753 120.1488 0010422 266.1249  93.8794 15.18600452157947
GAZELLE                 
1 54023U 22127A   22297.95670859 -.00000043  00000+0  00000+0 0  9995
2 54023  98.3149 296.8779 0012279 245.5592 114.4320 14.41645670  2488
